COSMOS 2361 [-]         
1 25590U 98076A   22261.44270787  .00000046  00000+0  33224-4 0  9990
2 25590  82.9343 137.4414 0030639 311.8908 221.9142 13.73027574189296
COSMOS 2378 [-]         
1 26818U 01023A   22260.95683433  .00000064  00000+0  52120-4 0  9997
2 26818  82.9309 155.6699 0031653 257.6189 102.1417 13.73975295 67016
COSMOS 2389 [-]         
1 27436U 02026A   22261.50572032  .00000043  00000+0  28668-4 0  9999
2 27436  82.9468 101.1499 0047551 115.3775 307.5134 13.74981999 19213
COSMOS 2398 [-]         
1 27818U 03023A   22261.45569621  .00000039  00000+0  25624-4 0  9999
2 27818  82.9452  63.0705 0031697 151.3808 208.9092 13.72216825966144
COSMOS 2407 [+]         
1 28380U 04028A   22261.42997492  .00000062  00000+0  47345-4 0  9998
2 28380  82.9648   7.5886 0040352 116.4427 244.0876 13.76120023911943
COSMOS 2414 [+]         
1 28521U 05002A   22261.48110210  .00000073  00000+0  48427-4 0  9993
2 28521  82.9549 357.9019 0038938 269.1271  90.5422 13.87665060894454
COSMOS 2429 [-]         
1 32052U 07038A   22261.37371134  .00000052  00000+0  38066-4 0  9995
2 32052  82.9801 133.8680 0039763  94.4897 266.0803 13.74968738753770
COSMOS 2454 [-]         
1 35635U 09039A   22261.46537739  .00000069  00000+0  43160-4 0  9992
2 35635  82.9609 344.0920 0018404 209.1924 150.8205 13.89694304667618
COSMOS 2463 [+]         
1 36519U 10017A   22261.31723709  .00000045  00000+0  33052-4 0  9993
2 36519  82.9644 174.6074 0035587 327.3849 149.0797 13.71479763620511
